NORAD_CAT_ID,OBJECT_NAME,OBJECT_TYPE,EPOCH,MEAN_MOTION,ECCENTRICITY,INCLINATION,RA_OF_ASC_NODE,ARG_OF_PERICENTER,MEAN_ANOMALY,BSTAR,MEAN_MOTION_DOT,MEAN_MOTION_DDOT,TLE_LINE0,TLE_LINE1,TLE_LINE2,SEMIMAJOR_AXIS,PERIOD,APOGEE,PERIGEE,DECAYED
52464.0,STARLINK-3904,PAYLOAD,2022-05-13 14:00:01,15.79887783,0.0001764,53.2176,230.8748,27.4836,307.6061,-0.005163,-0.0088067,0.0,0 STARLINK-3904,1 52464U 22049P   22133.58334491 -.00880670  00000-0 -51630-2 0  9994,2 52464  53.2176 230.8748 0001764  27.4836 307.6061 15.79887783  1307,6708.895,91.146,331.944,329.577,0.0
52464.0,STARLINK-3904,PAYLOAD,2022-05-13 16:00:00,15.79645477,0.0001767,53.2167,230.4579,33.6121,55.7345,-0.0044728,-0.00764892,0.0,0 STARLINK-3904,1 52464U 22049P   22133.66667824 -.00764892  00000-0 -44728-2 0  9999,2 52464  53.2167 230.4579 0001767  33.6121  55.7345 15.79645477  1313,6709.581,91.16,332.63199999999995,330.261,0.0
52464.0,STARLINK-3904,PAYLOAD,2022-05-14 06:00:00,15.78626998,0.000172,53.2174,227.5439,34.9122,132.5751,-0.0054313,-0.00875028,0.0,0 STARLINK-3904,1 52464U 22049P   22134.25001157 -.00875028  00000-0 -54313-2 0  9991,2 52464  53.2174 227.5439 0001720  34.9122 132.5751 15.78626998  1408,6712.467,91.219,335.486,333.177,0.0
52464.0,STARLINK-3904,PAYLOAD,2022-05-14 14:00:01,15.7799904,0.0001826,53.2174,225.884,31.5584,230.9912,-0.0056132,-0.00878596,0.0,0 STARLINK-3904,1 52464U 22049P   22134.58334491 -.00878596  00000-0 -56132-2 0  9991,2 52464  53.2174 225.8840 0001826  31.5584 230.9912 15.77999040  1308,6714.248000000001,91.255,337.339,334.88699999999994,0.0
52464.0,STARLINK-3904,PAYLOAD,2022-05-14 22:00:00,15.77369685,0.0001351,53.2175,224.2224,37.3529,319.5047,-0.0057691,-0.00877649,0.0,0 STARLINK-3904,1 52464U 22049P   22134.91667824 -.00877649  00000-0 -57691-2 0  9996,2 52464  53.2175 224.2224 0001351  37.3529 319.5047 15.77369685  1303,6716.033,91.291,338.806,336.991,0.0
52464.0,STARLINK-3904,PAYLOAD,2022-05-15 06:00:00,15.76737848,0.0001665,53.2177,222.5624,32.0952,58.315,-0.0058973,-0.00872736,0.0,0 STARLINK-3904,1 52464U 22049P   22135.25001157 -.00872736  00000-0 -58973-2 0  9991,2 52464  53.2177 222.5624 0001665  32.0952  58.3150 15.76737848  1560,6717.8269999999975,91.328,340.811,338.574,0.0
52464.0,STARLINK-3904,PAYLOAD,2022-05-15 14:00:01,15.76109724,0.0001811,53.2176,220.907,34.481,148.7884,-0.0060824,-0.00875096,0.0,0 STARLINK-3904,1 52464U 22049P   22135.58335648 -.00875096  00000-0 -60824-2 0  9992,2 52464  53.2176 220.9070 0001811  34.4810 148.7884 15.76109724  1304,6719.611999999999,91.364,342.694,340.26,0.0
52464.0,STARLINK-3904,PAYLOAD,2022-05-15 22:00:00,15.7548267,0.0001474,53.2174,219.2499,41.0969,234.1457,-0.0062843999999999,-0.00878867,0.0,0 STARLINK-3904,1 52464U 22049P   22135.91667824 -.00878867  00000-0 -62844-2 0  9996,2 52464  53.2174 219.2499 0001474  41.0969 234.1457 15.75482670  1301,6721.395,91.401,344.251,342.269,0.0
52464.0,STARLINK-3904,PAYLOAD,2022-05-16 06:00:02,15.74850975,0.0001693,53.2175,217.5948,27.9624,338.6296,-0.006422,-0.00874071,0.0,0 STARLINK-3904,1 52464U 22049P   22136.25002315 -.00874071  00000-0 -64220-2 0  9995,2 52464  53.2175 217.5948 0001693  27.9624 338.6296 15.74850975  1729,6723.191999999999,91.437,346.196,343.9190000000001,0.0
52464.0,STARLINK-3904,PAYLOAD,2022-05-16 14:00:01,15.74222776,0.0002074,53.2175,215.9441,23.2734,73.7779,-0.0066234,-0.00876884,0.0,0 STARLINK-3904,1 52464U 22049P   22136.58334491 -.00876884  00000-0 -66234-2 0  9995,2 52464  53.2175 215.9441 0002074  23.2734  73.7779 15.74222776  1303,6724.981,91.474,348.241,345.451,0.0
52464.0,STARLINK-3904,PAYLOAD,2022-05-16 22:00:00,15.73415462,0.0001536,53.2176,214.2913,40.0519,146.7992,-0.0022739,-0.00311109,0.0,0 STARLINK-3904,1 52464U 22049P   22136.91667824 -.00311109  00000-0 -22739-2 0  9997,2 52464  53.2176 214.2913 0001536  40.0519 146.7992 15.73415462  1820,6727.281,91.521,350.17900000000014,348.11300000000006,0.0
52464.0,STARLINK-3904,PAYLOAD,2022-05-17 06:00:00,15.73206344,0.0001565999999999,53.2178,212.641,43.2223,232.6753,-1.7075e-05,-3.017e-05,0.0,0 STARLINK-3904,1 52464U 22049P   22137.25001157 -.00003017  00000-0 -17075-4 0  9991,2 52464  53.2178 212.6410 0001566  43.2223 232.6753 15.73206344  1878,6727.877,91.533,350.796,348.689,0.0
52464.0,STARLINK-3904,PAYLOAD,2022-05-17 12:00:00,15.732381,0.0001761,53.2133,211.4014,34.2766,218.4796,0.0001431999999999,0.00019556,0.0,0 STARLINK-3904,1 52464U 22049P   22137.50001157  .00019556  00000-0  14320-3 0  9991,2 52464  53.2133 211.4014 0001761  34.2766 218.4796 15.73238100  1914,6727.7869999999975,91.531,350.836,348.467,0.0
52464.0,STARLINK-3904,PAYLOAD,2022-05-17 14:00:01,15.73243793,0.0001786999999999,53.2138,210.9892,33.7095,331.3564,7.8996e-05,0.000105,0.0,0 STARLINK-3904,1 52464U 22049P   22137.58335648  .00010500  00000-0  78996-4 0  9994,2 52464  53.2138 210.9892 0001787  33.7095 331.3564 15.73243793  1309,6727.77,91.531,350.838,348.43300000000005,0.0
52464.0,STARLINK-3904,PAYLOAD,2022-05-17 22:00:01,15.73263471,0.0001588,53.2145,209.3379,33.0681,61.0109,-0.00047619,-0.00067103,0.0,0 STARLINK-3904,1 52464U 22049P   22137.91668981 -.00067103  00000-0 -47619-3 0  9990,2 52464  53.2145 209.3379 0001588  33.0681  61.0109 15.73263471  1309,6727.714,91.529,350.648,348.511,0.0
52464.0,STARLINK-3904,PAYLOAD,2022-05-18 06:00:00,15.73262551,0.000155,53.2156,207.688,38.7229,144.2519,-0.00026005,-0.00037055,0.0,0 STARLINK-3904,1 52464U 22049P   22138.25001157 -.00037055  00000-0 -26005-3 0  9993,2 52464  53.2156 207.6880 0001550  38.7229 144.2519 15.73262551  2036,6727.717,91.53,350.625,348.539,0.0
52464.0,STARLINK-3904,PAYLOAD,2022-05-18 12:00:00,15.73218227,0.0001768,53.2159,206.4525,30.3381,129.3657,-0.00044998,-0.00063351,0.0,0 STARLINK-3904,1 52464U 22049P   22138.50001157 -.00063351  00000-0 -44998-3 0  9990,2 52464  53.2159 206.4525 0001768  30.3381 129.3657 15.73218227  2072,6727.843000000003,91.532,350.898,348.519,0.0
52464.0,STARLINK-3904,PAYLOAD,2022-05-18 14:00:01,15.73191279,0.0001807,53.2161,206.0405,29.2562,242.6882,-0.00018269,-0.00026172,0.0,0 STARLINK-3904,1 52464U 22049P   22138.58334491 -.00026172  00000-0 -18269-3 0  9990,2 52464  53.2161 206.0405 0001807  29.2562 242.6882 15.73191279  1301,6727.92,91.534,351.001,348.569,0.0
52464.0,STARLINK-3904,PAYLOAD,2022-05-18 22:00:00,15.73193586,0.0001669,53.216,204.3893,30.128,330.7317,-0.00043118,-0.00060685,0.0,0 STARLINK-3904,1 52464U 22049P   22138.91667824 -.00060685  00000-0 -43118-3 0  9994,2 52464  53.2160 204.3893 0001669  30.1280 330.7317 15.73193586  1312,6727.913000000001,91.534,350.901,348.656,0.0
52464.0,STARLINK-3904,PAYLOAD,2022-05-19 06:00:00,15.73205879,0.0001743,53.2177,202.7439,31.5366,57.9669,-1.6887e-05,-2.991e-05,0.0,0 STARLINK-3904,1 52464U 22049P   22139.25001157 -.00002991  00000-0 -16887-4 0  9993,2 52464  53.2177 202.7439 0001743  31.5366  57.9669 15.73205879  2195,6727.878000000002,91.533,350.916,348.571,0.0
52464.0,STARLINK-3904,PAYLOAD,2022-05-19 14:00:01,15.73168924,0.0001931,53.2155,201.0921,24.1159,154.6148,0.00029256,0.00040584,0.0,0 STARLINK-3904,1 52464U 22049P   22139.58335648  .00040584  00000-0  29256-3 0  9995,2 52464  53.2155 201.0921 0001931  24.1159 154.6148 15.73168924  1304,6727.984,91.535,351.148,348.55,0.0
52464.0,STARLINK-3904,PAYLOAD,2022-05-19 22:00:00,15.73206847,0.0001737,53.2152,199.4408,25.6215,241.9675,0.00044245,0.00061954,0.0,0 STARLINK-3904,1 52464U 22049P   22139.91667824  .00061954  00000-0  44245-3 0  9995,2 52464  53.2152 199.4408 0001737  25.6215 241.9675 15.73206847  2295,6727.876,91.533,350.909,348.57199999999995,0.0
52464.0,STARLINK-3904,PAYLOAD,2022-05-20 14:00:01,15.73199618,0.0002035,53.2156,196.1436,26.5891,58.938,-0.00034971,-0.00049417,0.0,0 STARLINK-3904,1 52464U 22049P   22140.58334491 -.00049417  00000-0 -34971-3 0  9998,2 52464  53.2156 196.1436 0002035  26.5891  58.9380 15.73199618  2405,6727.896,91.533,351.13,348.392,0.0
52464.0,STARLINK-3904,PAYLOAD,2022-05-20 22:00:00,15.73155793,0.0001895,53.2159,194.4922,27.842,146.5984,-0.00031066,-0.00043913,0.0,0 STARLINK-3904,1 52464U 22049P   22140.91667824 -.00043913  00000-0 -31066-3 0  9991,2 52464  53.2159 194.4922 0001895  27.8420 146.5984 15.73155793  1302,6728.021,91.536,351.161,348.611,0.0
52464.0,STARLINK-3904,PAYLOAD,2022-05-21 06:00:00,15.73175274,0.0001942,53.2164,192.8428,30.538,232.8312,0.00013207,0.00017935,0.0,0 STARLINK-3904,1 52464U 22049P   22141.25001157  .00017935  00000-0  13207-3 0  9990,2 52464  53.2164 192.8428 0001942  30.5380 232.8312 15.73175274  2503,6727.965999999999,91.535,351.13699999999994,348.524,0.0
52464.0,STARLINK-3904,PAYLOAD,2022-05-21 14:00:01,15.73185223,0.0002247,53.2154,191.1951,26.3282,326.0094,0.00050773,0.00071201,0.0,0 STARLINK-3904,1 52464U 22049P   22141.58335648  .00071201  00000-0  50773-3 0  9996,2 52464  53.2154 191.1951 0002247  26.3282 326.0094 15.73185223  1303,6727.937,91.534,351.314,348.291,0.0
52464.0,STARLINK-3904,PAYLOAD,2022-05-21 22:00:00,15.73188564,0.0001979,53.2154,189.5436,31.3748,49.8574,0.00042561,0.00059508,0.0,0 STARLINK-3904,1 52464U 22049P   22141.91667824  .00059508  00000-0  42561-3 0  9999,2 52464  53.2154 189.5436 0001979  31.3748  49.8574 15.73188564  1300,6727.928000000001,91.534,351.124,348.461,0.0
52464.0,STARLINK-3904,PAYLOAD,2022-05-22 14:00:01,15.73169678,0.0002183,53.2158,186.2467,22.8013,236.3065,-0.00020169,-0.00028796,0.0,0 STARLINK-3904,1 52464U 22049P   22142.58334491 -.00028796  00000-0 -20169-3 0  9991,2 52464  53.2158 186.2467 0002183  22.8013 236.3065 15.73169678  2719,6727.982,91.535,351.315,348.37800000000016,0.0
52464.0,STARLINK-3904,PAYLOAD,2022-05-22 22:00:01,15.73119199,0.0002066,53.2161,184.5951,29.3467,318.735,0.00074188,0.00104442,0.0,0 STARLINK-3904,1 52464U 22049P   22142.91668981  .00104442  00000-0  74188-3 0  9993,2 52464  53.2161 184.5951 0002066  29.3467 318.7350 15.73119199  1306,6728.126,91.538,351.381,348.601,0.0
